     2.10           G: GLONASS NAV DATA                     RINEX VERSION / TYPE
teqc  2015Jun23                         20210819 01:25:47UTCPGM / RUN BY / DATE
Linux 2.4.21-27.ELsmp|Opteron|gcc -static|Linux x86_64|=+   COMMENT
  2021     7    26    4.190951585770D-09                    CORR TO SYSTEM TIME
                                                            END OF HEADER
 9 21  7 27 22 15  0.0 5.117617547512D-06 1.818989403546D-12 7.920000000000D+04
   -7.341878906250D+03-2.361647605896D+00 9.313225746155D-10 0.000000000000D+00
    1.458404296875D+04 1.264601707458D+00 0.000000000000D+00-2.000000000000D+00
    1.959131494141D+04-1.835259437561D+00-1.862645149231D-09 0.000000000000D+00
16 21  7 27 22 15  0.0-1.858547329903D-05 0.000000000000D+00 7.920000000000D+04
   -2.030783251953D+04-7.041177749634D-01 1.862645149231D-09 0.000000000000D+00
    1.418713964844D+04 5.218076705933D-01-0.000000000000D+00-1.000000000000D+00
    6.331565429688D+03-3.407368659973D+00-0.000000000000D+00 0.000000000000D+00
19 21  7 27 22 15  0.0-1.531708985567D-04-9.094947017729D-13 7.920000000000D+04
   -9.916043945312D+03 4.142389297485D-01 0.000000000000D+00 0.000000000000D+00
    1.377231591797D+04-2.584470748901D+00-0.000000000000D+00 3.000000000000D+00
    1.904020800781D+04 2.083376884460D+00-1.862645149231D-09 0.000000000000D+00
20 21  7 27 22 15  0.0-5.317758768797D-05-9.094947017729D-13 7.920000000000D+04
   -3.360084472656D+03 2.751960754395D-01 1.862645149231D-09 0.000000000000D+00
    2.521456787109D+04-1.958103179932D-01 2.793967723846D-09 2.000000000000D+00
    1.626800292969D+03 3.607142448425D+00-9.313225746155D-10 0.000000000000D+00
21 21  7 27 22 15  0.0-2.270964905620D-04-2.728484105319D-12 7.920000000000D+04
    6.052897460938D+03-1.314163208008D-03 1.862645149231D-09 0.000000000000D+00
    1.850881738281D+04 2.266266822815D+00 3.725290298462D-09 4.000000000000D+00
   -1.650191455078D+04 2.539456367493D+00 0.000000000000D+00 0.000000000000D+00
 6 21  7 27 22 45  0.0 2.022478729486D-04 0.000000000000D+00 8.100000000000D+04
    1.845025878906D+03-2.723762512207D+00 1.862645149231D-09 0.000000000000D+00
    1.260504492188D+04-1.313570022583D+00 1.862645149231D-09-4.000000000000D+00
   -2.210481542969D+04-9.787578582764D-01 1.862645149231D-09 0.000000000000D+00
 7 21  7 27 22 45  0.0-4.186946898699D-05-0.000000000000D+00 8.100000000000D+04
    1.726405664062D+04-1.366508483887D+00 1.862645149231D-09 0.000000000000D+00
    1.471384326172D+04-8.335447311401D-01 3.725290298462D-09 5.000000000000D+00
   -1.158570410156D+04-3.088768959045D+00 0.000000000000D+00 0.000000000000D+00
 9 21  7 27 22 45  0.0 5.121342837811D-06 1.818989403546D-12 8.100000000000D+04
   -1.102577197266D+04-1.710435867310D+00 9.313225746155D-10 0.000000000000D+00
    1.690391406250D+04 1.271218299866D+00-0.000000000000D+00-2.000000000000D+00
    1.557247216797D+04-2.601283073425D+00-1.862645149231D-09 0.000000000000D+00
16 21  7 27 22 45  0.0-1.858547329903D-05 0.000000000000D+00 8.100000000000D+04
   -2.086092919922D+04 7.478523254395D-02 1.862645149231D-09 0.000000000000D+00
    1.479614648438D+04 1.173658370972D-01-9.313225746155D-10-1.000000000000D+00
    3.395263671875D+01-3.544859886169D+00 0.000000000000D+00 0.000000000000D+00
20 21  7 27 22 45  0.0-5.317945033312D-05-0.000000000000D+00 8.100000000000D+04
   -2.886291503906D+03 2.088441848755D-01 1.862645149231D-09 0.000000000000D+00
    2.403905322266D+04-1.100745201111D+00 1.862645149231D-09 2.000000000000D+00
    7.972537597656D+03 3.397791862488D+00-1.862645149231D-09 0.000000000000D+00
21 21  7 27 22 45  0.0-2.271011471748D-04-2.728484105319D-12 8.100000000000D+04
    6.348254394531D+03 2.959728240967D-01 2.793967723846D-09 0.000000000000D+00
    2.196390234375D+04 1.540308952332D+00 3.725290298462D-09 4.000000000000D+00
   -1.135318066406D+04 3.144280433655D+00-0.000000000000D+00 0.000000000000D+00
10 21  7 27 22 45  0.0-7.333140820265D-05-0.000000000000D+00 8.259000000000D+04
    4.195031250000D+03-2.575165748596D+00 0.000000000000D+00 0.000000000000D+00
    1.040749072266D+04 1.790270805359D+00 0.000000000000D+00-7.000000000000D+00
    2.290920410156D+04-3.356828689575D-01-2.793967723846D-09 0.000000000000D+00
 6 21  7 27 23 15  0.0 2.022497355938D-04 0.000000000000D+00 8.280000000000D+04
   -3.346583007812D+03-2.999316215515D+00 1.862645149231D-09 0.000000000000D+00
    1.055220751953D+04-9.437055587769D-01 9.313225746155D-10-4.000000000000D+00
   -2.299007226562D+04 1.447677612305D-03 1.862645149231D-09 0.000000000000D+00
 7 21  7 27 23 15  0.0-4.187040030956D-05-0.000000000000D+00 8.280000000000D+04
    1.410415039062D+04-2.127153396606D+00 2.793967723846D-09 0.000000000000D+00
    1.316555810547D+04-8.446617126465D-01 2.793967723846D-09 5.000000000000D+00
   -1.662339013672D+04-2.472113609314D+00 9.313225746155D-10 0.000000000000D+00
 9 21  7 27 23 15  0.0 5.124136805534D-06 1.818989403546D-12 8.280000000000D+04
   -1.345604980469D+04-9.871549606323D-01 9.313225746155D-10 0.000000000000D+00
    1.900367285156D+04 1.018081665039D+00-0.000000000000D+00-2.000000000000D+00
    1.034734375000D+04-3.166742324829D+00-9.313225746155D-10 0.000000000000D+00
10 21  7 27 23 15  0.0-7.333885878325D-05-0.000000000000D+00 8.280000000000D+04
   -7.764208984375D+01-2.138745307922D+00 0.000000000000D+00 0.000000000000D+00
    1.385934912109D+04 2.006686210632D+00 0.000000000000D+00-7.000000000000D+00
    2.142780908203D+04-1.299459457397D+00-2.793967723846D-09 0.000000000000D+00
16 21  7 27 23 15  0.0-1.858454197645D-05 0.000000000000D+00 8.280000000000D+04
   -2.012151611328D+04 7.163658142090D-01 9.313225746155D-10 0.000000000000D+00
    1.449236425781D+04-4.813518524170D-01-9.313225746155D-10-1.000000000000D+00
   -6.266301269531D+03-3.410326004028D+00 9.313225746155D-10 0.000000000000D+00
20 21  7 27 23 15  0.0-5.318131297827D-05-0.000000000000D+00 8.280000000000D+04
   -2.750954101562D+03-9.387207031250D-02 1.862645149231D-09 0.000000000000D+00
    2.132180322266D+04-1.889757156372D+00 0.000000000000D+00 2.000000000000D+00
    1.370053173828D+04 2.925264358521D+00-1.862645149231D-09 0.000000000000D+00
21 21  7 27 23 15  0.0-2.271058037877D-04-2.728484105319D-12 8.280000000000D+04
    6.980601562500D+03 3.650140762329D-01 3.725290298462D-09 0.000000000000D+00
    2.396861181641D+04 6.728658676147D-01 2.793967723846D-09 4.000000000000D+00
   -5.328453613281D+03 3.506486892700D+00-0.000000000000D+00 0.000000000000D+00
 6 21  7 27 23 45  0.0 2.022506669164D-04 0.000000000000D+00 8.460000000000D+04
   -8.776873535156D+03-2.983629226685D+00 9.313225746155D-10 0.000000000000D+00
    9.262943359375D+03-4.822435379028D-01-0.000000000000D+00-4.000000000000D+00
   -2.209989306641D+04 9.811763763428D-01 1.862645149231D-09 0.000000000000D+00
10 21  7 27 23 45  0.0-7.333885878325D-05-0.000000000000D+00 8.460000000000D+04
   -3.412393066406D+03-1.549595832825D+00 9.313225746155D-10 0.000000000000D+00
    1.747700390625D+04 1.966894149780D+00-0.000000000000D+00-7.000000000000D+00
    1.829206103516D+04-2.161990165710D+00-1.862645149231D-09 0.000000000000D+00
 9 21  7 27 23 45  0.0 5.126930773258D-06 1.818989403546D-12 8.460000000000D+04
   -1.460308789062D+04-3.027734756470D-01 9.313225746155D-10 0.000000000000D+00
    2.041883935547D+04 5.161380767822D-01-9.313225746155D-10-2.000000000000D+00
    4.319645996094D+03-3.487097740173D+00-0.000000000000D+00 0.000000000000D+00
16 21  7 27 23 45  0.0-1.858454197645D-05 0.000000000000D+00 8.460000000000D+04
   -1.841224414062D+04 1.142169952393D+00 9.313225746155D-10 0.000000000000D+00
    1.299557324219D+04-1.192146301270D+00-9.313225746155D-10-1.000000000000D+00
   -1.208581250000D+04-3.014108657837D+00 1.862645149231D-09 0.000000000000D+00
20 21  7 27 23 45  0.0-5.318317562342D-05-0.000000000000D+00 8.460000000000D+04
   -3.329237304688D+03-5.704765319824D-01 9.313225746155D-10 0.000000000000D+00
    1.736749755859D+04-2.460648536682D+00-0.000000000000D+00 2.000000000000D+00
    1.836735058594D+04 2.226428031921D+00-1.862645149231D-09 0.000000000000D+00
21 21  7 27 23 45  0.0-2.271104604006D-04-2.728484105319D-12 8.460000000000D+04
    7.508662109375D+03 1.795597076416D-01 3.725290298462D-09 0.000000000000D+00
    2.437090771484D+04-2.200183868408D-01 1.862645149231D-09 4.000000000000D+00
    1.107420410156D+03 3.598143577576D+00-9.313225746155D-10 0.000000000000D+00
22 21  7 27 23 45  0.0-1.248680055141D-04-1.818989403546D-12 8.631000000000D+04
    1.230810351562D+04 8.002271652222D-01 3.725290298462D-09 0.000000000000D+00
    1.668158251953D+04 1.877464294434D+00 2.793967723846D-09-3.000000000000D+00
   -1.482027197266D+04 2.789769172668D+00 0.000000000000D+00 0.000000000000D+00
